PROGRESS-MS 32          
1 65586U 25204A   25299.20038895  .00014735  00000+0  27050-3 0  9991
2 65586  51.6346  17.8374 0004635 339.5768  20.5035 15.49479093   271
CYGNUS NG-23            
1 65616U 25208A   25299.20038895  .00014735  00000+0  27050-3 0  9999
2 65616  51.6346  17.8374 0004635 339.5768  20.5035 15.49479093   220
DRAGONFLY               
1 65729U 98067XH  25299.46893697  .00090605  00000+0  11612-2 0  9990
2 65729  51.6324  15.1346 0002631  44.5719 315.5485 15.58402280  5768
1998-067XJ              
1 65730U 98067XJ  25299.59545147  .00215253  00000+0  20956-2 0  9999
2 65730  51.6307  13.7267 0009896  16.8940 343.2382 15.64976642  5797
1998-067XK              
1 65731U 98067XK  25299.61468169  .00067037  00000+0  91742-3 0  9998
2 65731  51.6331  14.6085 0004267  18.3390 341.7755 15.56772685  5784
RSP-03                  
1 65732U 98067XL  25299.60610897  .00078424  00000+0  10387-2 0  9992
2 65732  51.6328  14.5508 0004928  18.6929 341.4243 15.57580973  5793
GHS-01                  
1 65733U 98067XM  25299.78362116  .00099902  00000+0  12483-2 0  9993
2 65733  51.6332  13.4878 0003051  42.0132 318.1094 15.59029500  5825
YOTSUBA-KULOVER         
1 65941U 98067XN  25299.24441333  .00050829  00000+0  81754-3 0  9997
2 65941  51.6333  17.3832 0002410 309.1858  50.8918 15.52475324  2464
BOTAN                   
1 65942U 98067XP  25299.24137569  .00066958  00000+0  10490-2 0  9999
2 65942  51.6336  17.3634 0004234 332.8150  27.2618 15.53081115  2469
E-KAGAKU-1              
1 65943U 98067XQ  25299.24402476  .00049616  00000+0  79771-3 0  9992
2 65943  51.6335  17.3807 0004121 323.1871  36.8835 15.52492087  2469
HRC MONOBLOCK CAMERA    
1 66052U 98067XR  25299.64875414  .00033298  00000+0  58468-3 0  9993
2 66052  51.6329  15.5827 0004038 349.4550  10.6353 15.50201787  1522
