CCSDS_OMM_VERS = 2.0
CREATION_DATE  = 
ORIGINATOR     = 

OBJECT_NAME    = PROGRESS-MS 32
OBJECT_ID      = 2025-204A
CENTER_NAME    = EARTH
REF_FRAME      = TEME
TIME_SYSTEM    = UTC
MEAN_ELEMENT_THEORY = SGP/SGP4

EPOCH          = 2025-10-26T04:48:33.605280
MEAN_MOTION    = 15.49479093
ECCENTRICITY   = .00046358
INCLINATION    = 51.6346
RA_OF_ASC_NODE = 17.8374
ARG_OF_PERICENTER = 339.5768
MEAN_ANOMALY   = 20.5035

EPHEMERIS_TYPE = 0
CLASSIFICATION_TYPE = U
NORAD_CAT_ID   = 65586
ELEMENT_SET_NO = 999
REV_AT_EPOCH   = 27
BSTAR          = .27050386E-3
MEAN_MOTION_DOT = .14735E-3
MEAN_MOTION_DDOT = 0

CCSDS_OMM_VERS = 2.0
CREATION_DATE  = 
ORIGINATOR     = 

OBJECT_NAME    = CYGNUS NG-23
OBJECT_ID      = 2025-208A
CENTER_NAME    = EARTH
REF_FRAME      = TEME
TIME_SYSTEM    = UTC
MEAN_ELEMENT_THEORY = SGP/SGP4

EPOCH          = 2025-10-26T04:48:33.605280
MEAN_MOTION    = 15.49479093
ECCENTRICITY   = .00046358
INCLINATION    = 51.6346
RA_OF_ASC_NODE = 17.8374
ARG_OF_PERICENTER = 339.5768
MEAN_ANOMALY   = 20.5035

EPHEMERIS_TYPE = 0
CLASSIFICATION_TYPE = U
NORAD_CAT_ID   = 65616
ELEMENT_SET_NO = 999
REV_AT_EPOCH   = 22
BSTAR          = .27050386E-3
MEAN_MOTION_DOT = .14735E-3
MEAN_MOTION_DDOT = 0

CCSDS_OMM_VERS = 2.0
CREATION_DATE  = 
ORIGINATOR     = 

OBJECT_NAME    = DRAGONFLY
OBJECT_ID      = 1998-067XH
CENTER_NAME    = EARTH
REF_FRAME      = TEME
TIME_SYSTEM    = UTC
MEAN_ELEMENT_THEORY = SGP/SGP4

EPOCH          = 2025-10-26T11:15:16.154208
MEAN_MOTION    = 15.58402280
ECCENTRICITY   = .0002631
INCLINATION    = 51.6324
RA_OF_ASC_NODE = 15.1346
ARG_OF_PERICENTER = 44.5719
MEAN_ANOMALY   = 315.5485

EPHEMERIS_TYPE = 0
CLASSIFICATION_TYPE = U
NORAD_CAT_ID   = 65729
ELEMENT_SET_NO = 999
REV_AT_EPOCH   = 576
BSTAR          = .11612E-2
MEAN_MOTION_DOT = .90605E-3
MEAN_MOTION_DDOT = 0

CCSDS_OMM_VERS = 2.0
CREATION_DATE  = 
ORIGINATOR     = 

OBJECT_NAME    = 1998-067XJ
OBJECT_ID      = 1998-067XJ
CENTER_NAME    = EARTH
REF_FRAME      = TEME
TIME_SYSTEM    = UTC
MEAN_ELEMENT_THEORY = SGP/SGP4

EPOCH          = 2025-10-26T14:17:27.007008
MEAN_MOTION    = 15.64976642
ECCENTRICITY   = .0009896
INCLINATION    = 51.6307
RA_OF_ASC_NODE = 13.7267
ARG_OF_PERICENTER = 16.8940
MEAN_ANOMALY   = 343.2382

EPHEMERIS_TYPE = 0
CLASSIFICATION_TYPE = U
NORAD_CAT_ID   = 65730
ELEMENT_SET_NO = 999
REV_AT_EPOCH   = 579
BSTAR          = .20956E-2
MEAN_MOTION_DOT = .215253E-2
MEAN_MOTION_DDOT = 0

CCSDS_OMM_VERS = 2.0
CREATION_DATE  = 
ORIGINATOR     = 

OBJECT_NAME    = 1998-067XK
OBJECT_ID      = 1998-067XK
CENTER_NAME    = EARTH
REF_FRAME      = TEME
TIME_SYSTEM    = UTC
MEAN_ELEMENT_THEORY = SGP/SGP4

EPOCH          = 2025-10-26T14:45:08.498016
MEAN_MOTION    = 15.56772685
ECCENTRICITY   = .0004267
INCLINATION    = 51.6331
RA_OF_ASC_NODE = 14.6085
ARG_OF_PERICENTER = 18.3390
MEAN_ANOMALY   = 341.7755

EPHEMERIS_TYPE = 0
CLASSIFICATION_TYPE = U
NORAD_CAT_ID   = 65731
ELEMENT_SET_NO = 999
REV_AT_EPOCH   = 578
BSTAR          = .91742E-3
MEAN_MOTION_DOT = .67037E-3
MEAN_MOTION_DDOT = 0

CCSDS_OMM_VERS = 2.0
CREATION_DATE  = 
ORIGINATOR     = 

OBJECT_NAME    = RSP-03
OBJECT_ID      = 1998-067XL
CENTER_NAME    = EARTH
REF_FRAME      = TEME
TIME_SYSTEM    = UTC
MEAN_ELEMENT_THEORY = SGP/SGP4

EPOCH          = 2025-10-26T14:32:47.815008
MEAN_MOTION    = 15.57580973
ECCENTRICITY   = .0004928
INCLINATION    = 51.6328
RA_OF_ASC_NODE = 14.5508
ARG_OF_PERICENTER = 18.6929
MEAN_ANOMALY   = 341.4243

EPHEMERIS_TYPE = 0
CLASSIFICATION_TYPE = U
NORAD_CAT_ID   = 65732
ELEMENT_SET_NO = 999
REV_AT_EPOCH   = 579
BSTAR          = .10387E-2
MEAN_MOTION_DOT = .78424E-3
MEAN_MOTION_DDOT = 0

CCSDS_OMM_VERS = 2.0
CREATION_DATE  = 
ORIGINATOR     = 

OBJECT_NAME    = GHS-01
OBJECT_ID      = 1998-067XM
CENTER_NAME    = EARTH
REF_FRAME      = TEME
TIME_SYSTEM    = UTC
MEAN_ELEMENT_THEORY = SGP/SGP4

EPOCH          = 2025-10-26T18:48:24.868224
MEAN_MOTION    = 15.59029500
ECCENTRICITY   = .0003051
INCLINATION    = 51.6332
RA_OF_ASC_NODE = 13.4878
ARG_OF_PERICENTER = 42.0132
MEAN_ANOMALY   = 318.1094

EPHEMERIS_TYPE = 0
CLASSIFICATION_TYPE = U
NORAD_CAT_ID   = 65733
ELEMENT_SET_NO = 999
REV_AT_EPOCH   = 582
BSTAR          = .12483E-2
MEAN_MOTION_DOT = .99902E-3
MEAN_MOTION_DDOT = 0

CCSDS_OMM_VERS = 2.0
CREATION_DATE  = 
ORIGINATOR     = 

OBJECT_NAME    = YOTSUBA-KULOVER
OBJECT_ID      = 1998-067XN
CENTER_NAME    = EARTH
REF_FRAME      = TEME
TIME_SYSTEM    = UTC
MEAN_ELEMENT_THEORY = SGP/SGP4

EPOCH          = 2025-10-26T05:51:57.311712
MEAN_MOTION    = 15.52475324
ECCENTRICITY   = .00024107
INCLINATION    = 51.6333
RA_OF_ASC_NODE = 17.3832
ARG_OF_PERICENTER = 309.1858
MEAN_ANOMALY   = 50.8918

EPHEMERIS_TYPE = 0
CLASSIFICATION_TYPE = U
NORAD_CAT_ID   = 65941
ELEMENT_SET_NO = 999
REV_AT_EPOCH   = 246
BSTAR          = .81754297E-3
MEAN_MOTION_DOT = .50829E-3
MEAN_MOTION_DDOT = 0

CCSDS_OMM_VERS = 2.0
CREATION_DATE  = 
ORIGINATOR     = 

OBJECT_NAME    = BOTAN
OBJECT_ID      = 1998-067XP
CENTER_NAME    = EARTH
REF_FRAME      = TEME
TIME_SYSTEM    = UTC
MEAN_ELEMENT_THEORY = SGP/SGP4

EPOCH          = 2025-10-26T05:47:34.859616
MEAN_MOTION    = 15.53081115
ECCENTRICITY   = .00042344
INCLINATION    = 51.6336
RA_OF_ASC_NODE = 17.3634
ARG_OF_PERICENTER = 332.8150
MEAN_ANOMALY   = 27.2618

EPHEMERIS_TYPE = 0
CLASSIFICATION_TYPE = U
NORAD_CAT_ID   = 65942
ELEMENT_SET_NO = 999
REV_AT_EPOCH   = 246
BSTAR          = .10490386E-2
MEAN_MOTION_DOT = .66958E-3
MEAN_MOTION_DDOT = 0

CCSDS_OMM_VERS = 2.0
CREATION_DATE  = 
ORIGINATOR     = 

OBJECT_NAME    = E-KAGAKU-1
OBJECT_ID      = 1998-067XQ
CENTER_NAME    = EARTH
REF_FRAME      = TEME
TIME_SYSTEM    = UTC
MEAN_ELEMENT_THEORY = SGP/SGP4

EPOCH          = 2025-10-26T05:51:23.739264
MEAN_MOTION    = 15.52492087
ECCENTRICITY   = .00041214
INCLINATION    = 51.6335
RA_OF_ASC_NODE = 17.3807
ARG_OF_PERICENTER = 323.1871
MEAN_ANOMALY   = 36.8835

EPHEMERIS_TYPE = 0
CLASSIFICATION_TYPE = U
NORAD_CAT_ID   = 65943
ELEMENT_SET_NO = 999
REV_AT_EPOCH   = 246
BSTAR          = .79770735E-3
MEAN_MOTION_DOT = .49616E-3
MEAN_MOTION_DDOT = 0

CCSDS_OMM_VERS = 2.0
CREATION_DATE  = 
ORIGINATOR     = 

OBJECT_NAME    = HRC MONOBLOCK CAMERA
OBJECT_ID      = 1998-067XR
CENTER_NAME    = EARTH
REF_FRAME      = TEME
TIME_SYSTEM    = UTC
MEAN_ELEMENT_THEORY = SGP/SGP4

EPOCH          = 2025-10-26T15:34:12.357696
MEAN_MOTION    = 15.50201787
ECCENTRICITY   = .0004038
INCLINATION    = 51.6329
RA_OF_ASC_NODE = 15.5827
ARG_OF_PERICENTER = 349.4550
MEAN_ANOMALY   = 10.6353

EPHEMERIS_TYPE = 0
CLASSIFICATION_TYPE = U
NORAD_CAT_ID   = 66052
ELEMENT_SET_NO = 999
REV_AT_EPOCH   = 152
BSTAR          = .58468E-3
MEAN_MOTION_DOT = .33298E-3
MEAN_MOTION_DDOT = 0

